[{"OBJECT_NAME":"DONGPO 08","OBJECT_ID":"2022-167E","EPOCH":"2026-03-09T22:57:52.742880","MEAN_MOTION":15.31542505,"ECCENTRICITY":0.00092155,"INCLINATION":97.6764,"RA_OF_ASC_NODE":233.3854,"ARG_OF_PERICENTER":153.9158,"MEAN_ANOMALY":206.2548,"EPHEMERIS_TYPE":0,"CLASSIFICATION_TYPE":"U","NORAD_CAT_ID":54686,"ELEMENT_SET_NO":999,"REV_AT_EPOCH":18012,"BSTAR":0.0004734784,"MEAN_MOTION_DOT":0.0001437,"MEAN_MOTION_DDOT":0},{"OBJECT_NAME":"STARLINK-34439","OBJECT_ID":"2025-130W","EPOCH":"2026-03-09T08:19:21.010944","MEAN_MOTION":15.30195423,"ECCENTRICITY":0.00013248,"INCLINATION":53.1587,"RA_OF_ASC_NODE":89.9068,"ARG_OF_PERICENTER":89.6083,"MEAN_ANOMALY":270.507,"EPHEMERIS_TYPE":0,"CLASSIFICATION_TYPE":"U","NORAD_CAT_ID":64458,"ELEMENT_SET_NO":999,"REV_AT_EPOCH":4065,"BSTAR":0.00064724443,"MEAN_MOTION_DOT":0.00018856,"MEAN_MOTION_DDOT":0}]
